[{"OBJECT_NAME":"TROLL","OBJECT_ID":"2025-009BB","EPOCH":"2026-03-09T05:24:19.835712","MEAN_MOTION":15.28164315,"ECCENTRICITY":0.00018165,"INCLINATION":97.3932,"RA_OF_ASC_NODE":150.7169,"ARG_OF_PERICENTER":59.185,"MEAN_ANOMALY":300.9568,"EPHEMERIS_TYPE":0,"CLASSIFICATION_TYPE":"U","NORAD_CAT_ID":62658,"ELEMENT_SET_NO":999,"REV_AT_EPOCH":11817,"BSTAR":0.00048220305,"MEAN_MOTION_DOT":0.00013174,"MEAN_MOTION_DDOT":0},{"OBJECT_NAME":"STARLINK-34223","OBJECT_ID":"2025-124V","EPOCH":"2026-03-09T19:37:52.080960","MEAN_MOTION":15.27573927,"ECCENTRICITY":9.17e-5,"INCLINATION":42.9923,"RA_OF_ASC_NODE":117.2018,"ARG_OF_PERICENTER":311.0752,"MEAN_ANOMALY":49.002,"EPHEMERIS_TYPE":0,"CLASSIFICATION_TYPE":"U","NORAD_CAT_ID":64336,"ELEMENT_SET_NO":999,"REV_AT_EPOCH":4184,"BSTAR":0.00093482666,"MEAN_MOTION_DOT":0.00025547,"MEAN_MOTION_DDOT":0}]
